ONEWEB-0706             
1 61611U 24188T   26026.49267060  .00000047  00000+0  97067-4 0  9991
2 61611  87.8755  64.5082 0002091 114.6483 245.4863 13.10370941 64822
ONEWEB-0707             
1 61612U 24188U   26026.80473755 -.00000192  00000+0 -58497-3 0  9993
2 61612  87.8768  64.4284 0002024 114.5752 245.5587 13.10371132 64809
ONEWEB-0708             
1 61613U 24188V   26026.51755766 -.00000561  00000+0 -16439-2 0  9996
2 61613  87.8765  64.5169 0002453  98.1982 261.9423 13.10375817 64746
